{
  "constellation": "oneweb",
  "timestamp": "2025-07-21T05:06:13.717346+00:00",
  "satellite_count": 651,
  "data": [
    {
      "satellite_name": "ONEWEB-0410",
      "catalog_number": 51622,
      "epoch_year": 2025,
      "epoch_day": 201.37621736,
      "first_derivative": -7.54e-06,
      "second_derivative": 0.0,
      "drag_term": -0.0019746,
      "inclination": 87.905,
      "right_ascension": 71.8872,
      "eccentricity": 9.45e-05,
      "argument_of_perigee": 132.2723,
      "mean_anomaly": 227.8489,
      "mean_motion": 13.17642808,
      "revolution_number": 17000,
      "line1": "1 51622U 22012A   25201.37621736 -.00000754  00000+0 -19746-2 0  9994",
      "line2": "2 51622  87.9050  71.8872 0000945 132.2723 227.8489 13.17642808170006",
      "last_updated": "2025-07-21T05:06:13.714599+00:00",
      "constellation": "oneweb"
    },
    {
      "satellite_name": "ONEWEB-0411",
      "catalog_number": 51623,
      "epoch_year": 2025,
      "epoch_day": 201.4687427,
      "first_derivative": 2.58e-06,
      "second_derivative": 0.0,
      "drag_term": 0.0,
      "inclination": 87.8821,
      "right_ascension": 102.4277,
      "eccentricity": 0.0002083,
      "argument_of_perigee": 60.1034,
      "mean_anomaly": 300.03,
      "mean_motion": 13.10376475,
      "revolution_number": 16584,
      "line1": "1 51623U 22012B   25201.46874270  .00000258  00000+0  70181-3 0  9996",
      "line2": "2 51623  87.8821 102.4277 0002083  60.1034 300.0300 13.10376475165840",
      "last_updated": "2025-07-21T05:06:13.714601+00:00",
      "constellation": "oneweb"
    },
    {
      "satellite_name": "ONEWEB-0415",
      "catalog_number": 51624,
      "epoch_year": 2025,
      "epoch_day": 201.4654152,
      "first_derivative": 1.13e-06,
      "second_derivative": 0.0,
      "drag_term": 0.0,
      "inclination": 87.8819,
      "right_ascension": 102.4318,
      "eccentricity": 0.0001923,
      "argument_of_perigee": 66.9835,
      "mean_anomaly": 293.1495,
      "mean_motion": 13.10376232,
      "revolution_number": 16584,
      "line1": "1 51624U 22012C   25201.46541520  .00000113  00000+0  28822-3 0  9991",
      "line2": "2 51624  87.8819 102.4318 0001923  66.9835 293.1495 13.10376232165847",
      "last_updated": "2025-07-21T05:06:13.714603+00:00",
      "constellation": "oneweb"
    },
    {
      "satellite_name": "ONEWEB-0416",
      "catalog_number": 51625,
      "epoch_year": 2025,
      "epoch_day": 201.47704894,
      "first_derivative": 5.8e-06,
      "second_derivative": 0.0,
      "drag_term": 0.0,
      "inclination": 87.8821,
      "right_ascension": 102.4475,
      "eccentricity": 0.0001836,
      "argument_of_perigee": 75.2842,
      "mean_anomaly": 284.8489,
      "mean_motion": 13.1037471,
      "revolution_number": 16588,
      "line1": "1 51625U 22012D   25201.47704894  .00000580  00000+0  16258-2 0  9995",
      "line2": "2 51625  87.8821 102.4475 0001836  75.2842 284.8489 13.10374710165882",
      "last_updated": "2025-07-21T05:06:13.714605+00:00",
      "constellation": "oneweb"
    },
    {
      "satellite_name": "ONEWEB-0422",
      "catalog_number": 51626,
      "epoch_year": 2025,
      "epoch_day": 201.38634065,
      "first_derivative": 7.5e-07,
      "second_derivative": 0.0,
      "drag_term": 0.0,
      "inclination": 87.9045,
      "right_ascension": 71.8921,
      "eccentricity": 0.0002495,
      "argument_of_perigee": 83.4062,
      "mean_anomaly": 276.7353,
      "mean_motion": 13.17649308,
      "revolution_number": 17011,
      "line1": "1 51626U 22012E   25201.38634065  .00000075  00000+0  15984-3 0  9993",
      "line2": "2 51626  87.9045  71.8921 0002495  83.4062 276.7353 13.17649308170111",
      "last_updated": "2025-07-21T05:06:13.714607+00:00",
      "constellation": "oneweb"
    },
    {
      "satellite_name": "ONEWEB-0423",
      "catalog_number": 51627,
      "epoch_year": 2025,
      "epoch_day": 201.91114372,
      "first_derivative": -4.8e-07,
      "second_derivative": 0.0,
      "drag_term": -0.00015645,
      "inclination": 87.9049,
      "right_ascension": 71.7952,
      "eccentricity": 0.0001834,
      "argument_of_perigee": 83.3239,
      "mean_anomaly": 276.8101,
      "mean_motion": 13.17649009,
      "revolution_number": 17136,
      "line1": "1 51627U 22012F   25201.91114372 -.00000048  00000+0 -15645-3 0  9993",
      "line2": "2 51627  87.9049  71.7952 0001834  83.3239 276.8101 13.17649009171368",
      "last_updated": "2025-07-21T05:06:13.714609+00:00",
      "constellation": "oneweb"
    },
    {
      "satellite_name": "ONEWEB-0425",
      "catalog_number": 51628,
      "epoch_year": 2025,
      "epoch_day": 201.48701009,
      "first_derivative": 6.85e-06,
      "second_derivative": 0.0,
      "drag_term": 0.0,
      "inclination": 87.8815,
      "right_ascension": 102.4154,
      "eccentricity": 0.0001649,
      "argument_of_perigee": 85.4262,
      "mean_anomaly": 274.7054,
      "mean_motion": 13.10372495,
      "revolution_number": 16588,
      "line1": "1 51628U 22012G   25201.48701009  .00000685  00000+0  19269-2 0  9995",
      "line2": "2 51628  87.8815 102.4154 0001649  85.4262 274.7054 13.10372495165887",
      "last_updated": "2025-07-21T05:06:13.714611+00:00",
      "constellation": "oneweb"
    },
    {
      "satellite_name": "ONEWEB-0428",
      "catalog_number": 51629,
      "epoch_year": 2025,
      "epoch_day": 201.46708146,
      "first_derivative": 1.43e-06,
      "second_derivative": 0.0,
      "drag_term": 0.0,
      "inclination": 87.882,
      "right_ascension": 102.4413,
      "eccentricity": 0.0002069,
      "argument_of_perigee": 74.9606,
      "mean_anomaly": 285.175,
      "mean_motion": 13.10376413,
      "revolution_number": 16584,
      "line1": "1 51629U 22012H   25201.46708146  .00000143  00000+0  37461-3 0  9997",
      "line2": "2 51629  87.8820 102.4413 0002069  74.9606 285.1750 13.10376413165843",
      "last_updated": "2025-07-21T05:06:13.714613+00:00",
      "constellation": "oneweb"
    },
    {
      "satellite_name": "ONEWEB-0431",
      "catalog_number": 51630,
      "epoch_year": 2025,
      "epoch_day": 201.43705412,
      "first_derivative": -4.93e-06,
      "second_derivative": 0.0,
      "drag_term": -0.0014494000000000002,
      "inclination": 87.8808,
      "right_ascension": 102.4181,
      "eccentricity": 0.0002308,
      "argument_of_perigee": 65.9646,
      "mean_anomaly": 294.1723,
      "mean_motion": 13.10371003,
      "revolution_number": 16589,
      "line1": "1 51630U 22012J   25201.43705412 -.00000493  00000+0 -14494-2 0  9999",
      "line2": "2 51630  87.8808 102.4181 0002308  65.9646 294.1723 13.10371003165898",
      "last_updated": "2025-07-21T05:06:13.714615+00:00",
      "constellation": "oneweb"
    },
    {
      "satellite_name": "ONEWEB-0434",
      "catalog_number": 51631,
      "epoch_year": 2025,
      "epoch_day": 201.49032637,
      "first_derivative": 6.12e-06,
      "second_derivative": 0.0,
      "drag_term": 0.0,
      "inclination": 87.8816,
      "right_ascension": 102.4492,
      "eccentricity": 0.0001543,
      "argument_of_perigee": 96.3761,
      "mean_anomaly": 263.7542,
      "mean_motion": 13.10371866,
      "revolution_number": 16588,
      "line1": "1 51631U 22012K   25201.49032637  .00000612  00000+0  17165-2 0  9997",
      "line2": "2 51631  87.8816 102.4492 0001543  96.3761 263.7542 13.10371866165886",
      "last_updated": "2025-07-21T05:06:13.714617+00:00",
      "constellation": "oneweb"
    },
    {
      "satellite_name": "ONEWEB-0435",
      "catalog_number": 51632,
      "epoch_year": 2025,
      "epoch_day": 201.42226178,
      "first_derivative": 2.32e-06,
      "second_derivative": 0.0,
      "drag_term": 0.0,
      "inclination": 87.8817,
      "right_ascension": 102.4555,
      "eccentricity": 0.0002326,
      "argument_of_perigee": 78.1712,
      "mean_anomaly": 281.9676,
      "mean_motion": 13.10370088,
      "revolution_number": 16586,
      "line1": "1 51632U 22012L   25201.42226178  .00000232  00000+0  62729-3 0  9991",
      "line2": "2 51632  87.8817 102.4555 0002326  78.1712 281.9676 13.10370088165865",
      "last_updated": "2025-07-21T05:06:13.714620+00:00",
      "constellation": "oneweb"
    },
    {
      "satellite_name": "ONEWEB-0436",
      "catalog_number": 51633,
      "epoch_year": 2025,
      "epoch_day": 201.59895559,
      "first_derivative": -4e-08,
      "second_derivative": 0.0,
      "drag_term": -4.4012000000000005e-05,
      "inclination": 87.9041,
      "right_ascension": 71.8439,
      "eccentricity": 0.0002003,
      "argument_of_perigee": 78.1837,
      "mean_anomaly": 281.9519,
      "mean_motion": 13.1764949,
      "revolution_number": 17001,
      "line1": "1 51633U 22012M   25201.59895559 -.00000004  00000+0 -44012-4 0  9990",
      "line2": "2 51633  87.9041  71.8439 0002003  78.1837 281.9519 13.17649490170018",
      "last_updated": "2025-07-21T05:06:13.714622+00:00",
      "constellation": "oneweb"
    },
    {
      "satellite_name": "ONEWEB-0438",
      "catalog_number": 51634,
      "epoch_year": 2025,
      "epoch_day": 201.482029,
      "first_derivative": 6.5e-06,
      "second_derivative": 0.0,
      "drag_term": 0.0,
      "inclination": 87.8818,
      "right_ascension": 102.4444,
      "eccentricity": 0.0001762,
      "argument_of_perigee": 80.5454,
      "mean_anomaly": 279.5873,
      "mean_motion": 13.10373853,
      "revolution_number": 16590,
      "line1": "1 51634U 22012N   25201.48202900  .00000650  00000+0  18248-2 0  9996",
      "line2": "2 51634  87.8818 102.4444 0001762  80.5454 279.5873 13.10373853165908",
      "last_updated": "2025-07-21T05:06:13.714624+00:00",
      "constellation": "oneweb"
    }
  ]
}